COSMOS 1933             
1 18958U 88020A   14343.23801443  .00002108  00000-0  16150-3 0  4980
2 18958  82.5316 271.5984 0012840 163.7454 196.4185 15.01309851453233
SL-3 R/B                
1 19046U 88032B   14343.94283434  .00001756  00000-0  14335-3 0   699
2 19046  97.6208  35.2352 0038179 219.6235 140.2198 15.00172892434540
SL-16 R/B               
1 19120U 88039B   14343.85140402 -.00000062  00000-0 -68941-5 0  2233
2 19120  71.0160 109.4102 0020814 165.0027   4.4448 14.19072267375821
COSMOS 1953             
1 19210U 88050A   14344.18498282  .00001648  00000-0  12052-3 0  5844
2 19210  82.5179 204.1729 0015054 148.9861 211.2256 15.02894422439512
SL-8 R/B                
1 19257U 88053B   14343.49172207  .00000240  00000-0  89509-4 0  2001
2 19257  74.0503 108.8846 0021208 230.5923 196.3544 14.37101908386493
COSMOS 1975             
1 19573U 88093A   14343.24955263  .00003740  00000-0  28720-3 0  3837
2 19573  82.5208 155.2197 0015145 185.9978 174.1068 15.01412100421453
SL-14 R/B               
1 19574U 88093B   14343.40784631  .00000470  00000-0  55055-4 0  5229
2 19574  82.5331 285.7565 0020199 270.8576 194.6979 14.82824933412976
SL-16 R/B               
1 19650U 88102B   14343.10371883  .00000095  00000-0  72843-4 0  4487
2 19650  70.9994 151.7823 0012691 151.7405 326.6858 14.15692820345637
INTERCOSMOS 24          
1 20261U 89080A   14343.24504903  .00000834  00000-0  24136-3 0  5123
2 20261  82.5923 246.3919 1208195  59.7871 311.7316 12.55158299150385
SL-14 R/B               
1 20262U 89080C   14343.20442500  .00000179  00000-0  50074-4 0   212
2 20262  82.5943 285.8291 1238506 195.8309 160.0529 12.48582501146763
DELTA 1 R/B             
1 20323U 89089B   14343.45932206  .00000287  00000-0  83941-4 0  1235
2 20323  97.1183  61.3854 0073722  97.4912 329.1999 14.47832430321487
DELTA 2 R/B(1)          
1 20453U 90008B   14344.09424687  .00008074  00000-0  50510-3 0  1509
2 20453  35.6246 215.5914 0313862 104.6407 258.9314 14.76166692311751
COSMOS 2058             
1 20465U 90010A   14344.28363386  .00001265  00000-0  11132-3 0  3003
2 20465  82.4916  51.4315 0017406 147.2940 212.9363 14.95592572347721
SL-14 R/B               
1 20466U 90010B   14343.99206972  .00000413  00000-0  50160-4 0  1296
2 20466  82.5022 153.4359 0022138 119.4522 240.8904 14.80907667341282
SL-14 R/B               
1 20511U 90018B   14343.44668007  .00000404  00000-0  50796-4 0  1235
2 20511  82.5241  91.4050 0016441 248.8901 228.5483 14.79581541335895
HST                     
1 20580U 90037B   14344.02602573  .00003283  00000-0  20592-3 0  1747
2 20580  28.4717 320.5823 0003016   9.9319  50.7559 15.06368506151244
SL-16 R/B               
1 20625U 90046B   14343.26431817  .00000316  00000-0  18911-3 0  8847
2 20625  71.0001 281.8784 0012492  61.8605  42.7357 14.14545885267602
COSMOS 2084             
1 20663U 90055A   14344.23394540  .00001234  00000-0  14390-3 0  2995
2 20663  62.7975  55.0087 0051924 339.2292  20.6689 14.89708426322648
SL-6 R/B(2)             
1 20666U 90055D   14343.52923196  .00001935  00000-0  20669-3 0  3663
2 20666  62.7888 339.0556 0077251  11.7425 348.5445 14.90181728323871
SL-8 R/B                
1 20775U 90078B   14343.20558420  .00011522  00000-0  62747-3 0  5789
2 20775  82.9352  78.6944 0628834 283.3697 133.3293 14.20461834217422
SL-8 R/B                
1 21088U 91006B   14343.52892697  .00000154  00000-0  14062-3 0  1187
2 21088  82.9419 344.5968 0022784  21.1806 135.0700 13.76972019198890
OKEAN-3                 
1 21397U 91039A   14344.09896011  .00002236  00000-0  22387-3 0  4650
2 21397  82.5233 291.6599 0020415  74.1503 286.1964 14.90826686272591
COSMOS 2151             
1 21422U 91042A   14343.25084212  .00001071  00000-0  10654-3 0   861
2 21422  82.5016  42.2788 0016122 126.8375 233.4325 14.90632129271234
SL-14 R/B               
1 21423U 91042B   14343.58883006  .00000403  00000-0  50985-4 0  8785
2 21423  82.4947 101.5677 0017997  30.2445  43.1346 14.79343575266469
ERS-1                   
1 21574U 91050A   14343.82382772  .00000358  00000-0  13401-3 0   953
2 21574  98.3423 296.0615 0033347 185.0864 205.0521 14.37035608225372
ARIANE 40 R/B           
1 21610U 91050F   14344.15123977  .00000295  00000-0  10719-3 0  6709
2 21610  98.7269  12.5066 0003804 154.5667 246.2996 14.40440485227645
INTERCOSMOS 25          
1 21819U 91086A   14343.15838969  .00000905  00000-0  17942-3 0  4646
2 21819  82.5594 256.3204 1529815 244.9527  98.5320 12.03109537  1449
SL-14 R/B               
1 21820U 91086B   14343.42125466  .00001074  00000-0  20938-3 0  3027
2 21820  82.5607 301.4220 1581246  37.6841 332.5031 11.92531988996997
SL-8 R/B                
1 21876U 92008B   14341.88787506  .00000087  00000-0  74330-4 0  4626
2 21876  82.9279  82.6443 0036067  89.6164  49.4708 13.75529244144582
SL-8 R/B                
1 21938U 92020B   14343.11047752  .00000015  00000-0  22637-6 0  5200
2 21938  82.9298 324.2503 0028181 239.9332 169.0494 13.75186991136691
SL-16 R/B               
1 22220U 92076B   14343.20183604 -.00000124  00000-0 -38336-4 0  4745
2 22220  70.9990 197.7610 0014691 241.9918 256.3887 14.16338671140363
SL-16 R/B               
1 22285U 92093B   14343.24398413 -.00000116  00000-0 -35633-4 0  4709
2 22285  71.0231 344.1247 0001690  74.8751 285.2558 14.14944255132266
COSMOS 2228             
1 22286U 92094A   14343.46372471  .00001427  00000-0  15886-3 0  5028
2 22286  82.5203 161.6144 0019842 296.9446  62.9743 14.86327544185648
SL-16 R/B               
1 22566U 93016B   14343.24393304 -.00000092  00000-0 -23177-4 0  2230
2 22566  71.0059 199.9301 0008143  94.5284 265.6769 14.14865650121000
COSMOS 2242             
1 22626U 93024A   14344.09597928  .00001074  00000-0  11876-3 0  2824
2 22626  82.5215 188.6524 0018164 294.5361  65.3962 14.86387801169392
SL-16 R/B               
1 22803U 93059B   14343.59580101 -.00000010  00000-0  18800-4 0  4397
2 22803  70.9918  29.2290 0018345 340.3180  19.7233 14.16690839 97890
ARIANE 40 R/B           
1 22830U 93061H   14344.08412475  .00000207  00000-0  95820-4 0  3374
2 22830  98.8456 323.3363 0012006  95.5416 303.6348 14.31230259106621
COSMOS 2278             
1 23087U 94023A   14343.66424381  .00000417  00000-0  24598-3 0  4805
2 23087  71.0538 122.7489 0008977 191.4334 247.2636 14.13623431 64407
SL-16 R/B               
1 23088U 94023B   14343.20796237 -.00000025  00000-0  11557-4 0   891
2 23088  71.0005  55.0011 0001999  15.7175  49.3769 14.14593213 65307
SL-16 R/B               
1 23343U 94074B   14343.15465462  .00000386  00000-0  63386-4 0  1907
2 23343  98.2250 350.1978 0008140 137.1253 262.1640 14.76316817 80914
SL-16 R/B               
1 23405U 94077B   14343.21124200 -.00000077  00000-0 -14941-4 0  9942
2 23405  70.9845 351.6842 0005288 279.4321 152.4805 14.15131085 35225
ERS-2                   
1 23560U 95021A   14343.57458292  .00010310  00000-0  59443-3 0  1850
2 23560  98.5494 204.5631 0003831 160.4974 199.6385 15.12606699 35750
ARIANE 40+ R/B          
1 23561U 95021B   14343.09684414  .00000353  00000-0  13314-3 0  9351
2 23561  98.7067 311.1315 0008147 105.3890 316.0150 14.37419881 28908
SL-16 R/B               
1 23705U 95058B   14343.23676353 -.00000060  00000-0 -63401-5 0  4121
2 23705  71.0220 161.1422 0014926 264.8398  95.1021 14.15041153986905
SL-16 R/B               
1 24298U 96051B   14343.22611022 -.00000175  00000-0 -68509-4 0  6171
2 24298  70.8561 203.3315 0013672 115.5580  22.9098 14.12452850941786
ORBVIEW 2 (SEASTAR)     
1 24883U 97037A   14343.25878197  .00000284  00000-0  11930-3 0  4775
2 24883  98.4904  91.0386 0001372 331.9747  85.4478 14.33043870919991
SL-16 R/B               
1 25400U 98043G   14343.99477888  .00000069  00000-0  46843-4 0  8252
2 25400  98.3585 312.4414 0011071 111.1931 249.0434 14.25281389853989
SL-16 R/B               
1 25407U 98045B   14343.51125579  .00000122  00000-0  86549-4 0  6330
2 25407  71.0105 176.0937 0007391 187.1478 199.3298 14.15685953845884
ISS (ZARYA)             
1 25544U 98067A   14344.49710769  .00019456  00000-0  32387-3 0  5390
2 25544  51.6484 305.3360 0007868 117.0300 346.8902 15.52009929918687
SL-8 R/B                
1 25723U 99022C   14343.37051976  .00017393  00000-0  51218-3 0  8200
2 25723  48.4233 337.4821 0015905 328.2255 172.9691 15.34919001864028
CZ-4B R/B               
1 25732U 99025C   14344.09387569  .00000078  00000-0  60097-4 0  7053
2 25732  98.9186 321.8747 0037422 190.2788 299.4954 14.17518102806272
OKEAN-O                 
1 25860U 99039A   14344.09488767  .00000776  00000-0  12126-3 0  4378
2 25860  98.0687 307.1850 0001348 123.4525 296.4729 14.75636571828094
SL-16 R/B               
1 25861U 99039B   14342.99446734  .00000459  00000-0  70844-4 0  8110
2 25861  97.9752 299.8134 0016384 166.9090 235.0517 14.77909478829684
TERRA                   
1 25994U 99068A   14344.51391263  .00000729  00000-0  17188-3 0  9038
2 25994  98.2098  56.7197 0000805  92.9771 267.1521 14.57125396796740
SL-14 R/B               
1 26874U 01032B   14343.37865803  .00019202  00000-0  26106-3 0  8674
2 26874  82.4697 159.2020 0014123 125.7107 234.5465 15.57318240748518
ENVISAT                 
1 27386U 02009A   14344.28565947  .00000181  00000-0  74269-4 0  7113
2 27386  98.3623  45.1219 0000808  78.1585 281.9692 14.37763794668885
IDEFIX & ARIANE 42P R/B 
1 27422U 02021B   14343.57724615  .00000144  00000-0  72731-4 0  6613
2 27422  98.2799  17.5374 0013481  87.0556  74.7999 14.29101945655184
AQUA                    
1 27424U 02022A   14344.21631700  .00000716  00000-0  16892-3 0  2111
2 27424  98.2202 282.7956 0001598  89.7046  47.8889 14.57097341670301
CZ-4B R/B               
1 27432U 02024C   14343.51786186  .00000054  00000-0  50729-4 0  1665
2 27432  98.8571 302.6105 0051529 121.6335  15.7356 14.13921950648682
